[
    {
        "Altitude(m)": 612502.2444871519,
        "Argument of Periapsis(deg)": 0.0,
        "Eccentricity": 0.0,
        "Inclination(deg)": 60.0,
        "Latitude(deg)": -28.13613453241993,
        "Longitude(deg)": -42.85171603060915,
        "Mean Anomaly(deg)": -32.7273,
        "RAAN(deg)": 75.0,
        "Satellite Name": "Test1 350",
        "Satellite Number": 350,
        "Semi-Major Axis(m)": 6980739.136638005,
        "Time(s)": 0
    },
    {
        "Altitude(m)": 612308.6916461797,
        "Argument of Periapsis(deg)": 0.00010418945913296404,
        "Eccentricity": 0.0,
        "Inclination(deg)": 60.0,
        "Latitude(deg)": -27.6231894460813,
        "Longitude(deg)": -42.49824210698344,
        "Mean Anomaly(deg)": -32.10719385453816,
        "RAAN(deg)": 74.99957995086027,
        "Satellite Name": "Test1 350",
        "Satellite Number": 350,
        "Semi-Major Axis(m)": 6980739.136638005,
        "Time(s)": 10
    }
]